OBJECT_NAME,OBJECT_ID,EPOCH,MEAN_MOTION,ECCENTRICITY,INCLINATION,RA_OF_ASC_NODE,ARG_OF_PERICENTER,MEAN_ANOMALY,EPHEMERIS_TYPE,CLASSIFICATION_TYPE,NORAD_CAT_ID,ELEMENT_SET_NO,REV_AT_EPOCH,BSTAR,MEAN_MOTION_DOT,MEAN_MOTION_DDOT
GALAXY 33 (G-33),2022-128A,2026-06-20T09:28:38.667936,1.00270656,.0001741,0.0225,55.3005,30.1498,192.3075,0,U,54026,999,1377,0,.75E-6,0
GALAXY 34 (G-34),2022-128B,2026-06-20T00:50:38.717376,1.00275411,.00017584,0.0124,53.5288,53.8534,44.5334,0,U,54027,999,1394,0,.53E-6,0
ANGOSAT 2,2022-131A,2026-06-21T12:53:37.428000,1.00273779,.0000725,0.0299,100.6416,327.5424,57.9510,0,U,54033,999,1352,0,.134E-5,0
EUTELSAT HOTBIRD 13F,2022-134A,2026-06-20T04:20:11.069088,1.00273367,.00019473,0.0471,295.1519,64.5697,346.7332,0,U,54048,999,1340,0,.82E-6,0
LDPE-2,2022-144A,2026-06-20T08:40:22.812096,1.00534001,.0001867,5.6217,63.6302,98.8441,81.6912,0,U,54219,999,1187,0,.119E-5,0
EUTELSAT HOTBIRD 13G,2022-146A,2026-06-20T02:37:30.728352,1.00272784,.0002093,0.0472,222.5154,317.6469,140.5390,0,U,54225,999,749,0,.82E-6,0
ZHONGXING-19,2022-148A,2026-06-21T12:07:38.862624,1.00272048,.0002531,0.0171,64.7588,46.9675,143.0775,0,U,54230,999,1342,0,-.83E-6,0
GALAXY 31 (G-31),2022-153A,2026-06-20T05:24:41.082336,1.00272126,.000117,0.0250,88.2921,352.9233,147.3806,0,U,54243,999,716,0,.8E-7,0
GALAXY 32 (G-32),2022-153B,2026-06-20T05:33:04.082400,1.00271613,.0002075,0.0157,36.0739,1.5238,223.1141,0,U,54244,999,1317,0,-.179E-5,0
EUTELSAT 10B,2022-157A,2026-06-20T07:44:19.508928,1.00266775,.000131,0.0633,97.3477,6.5284,290.7143,0,U,54259,999,1305,0,.63E-6,0
GALAXY 35 (G-35),2022-170A,2026-06-20T08:57:52.450272,1.00271920,.0001886,0.0184,78.3754,7.7151,223.8506,0,U,54741,999,1292,0,-.167E-5,0
GALAXY 36 (G-36),2022-170B,2026-06-20T08:59:07.328832,1.00272198,.0002602,0.0027,66.1363,18.0076,230.2209,0,U,54742,999,1280,0,-.19E-5,0
METEOSAT-12 (MTG-I1),2022-170C,2026-06-20T05:59:05.580960,1.00273524,.000332,0.7421,23.5307,70.9892,263.3203,0,U,54743,999,1300,0,-.13E-6,0
SHIJIAN-23 (SJ-23),2023-002A,2026-06-20T11:48:12.491136,1.00087098,.0003795,3.7270,78.2744,275.1369,238.2597,0,U,55131,999,1254,0,-.272E-5,0
APSTAR-6E,2023-005A,2026-06-21T12:23:38.759712,1.00272313,.0000753,0.0336,240.6321,315.1115,33.8531,0,U,55239,999,1873,0,-.319E-5,0
USA 342,2023-008A,2026-06-19T16:53:16.090080,1.00267812,.0000125,0.0057,73.3519,107.0449,4.6843,0,U,55263,999,1254,0,0,0
LDPE-3A,2023-008B,2026-06-20T08:49:38.238816,0.99145584,.0001203,2.3572,81.6285,57.3943,140.0346,0,U,55264,999,1184,0,.74E-6,0
ELEKTRO-L 4,2023-016A,2026-06-20T19:00:47.579904,1.00271037,.0000884,0.0764,157.9076,20.1640,181.9168,0,U,55506,999,1237,0,-.62E-6,0
AMAZONAS NEXUS,2023-017A,2026-06-19T19:38:38.806080,1.00264811,.00047427,0.0386,39.7222,27.7449,74.2186,0,U,55508,999,707,0,-.288E-5,0
LUCH-5X (OLYMP-K 2),2023-031A,2026-06-20T04:34:09.728832,1.00272356,.0000849,0.0319,70.1111,132.8971,195.9281,0,U,55841,999,1196,0,.28E-6,0
GAOFEN-13 02,2023-036A,2026-06-21T12:35:40.643808,1.00269978,.0003996,1.0212,1.7574,337.6625,267.4934,0,U,55912,999,1213,0,-.22E-5,0
SES-18,2023-038A,2026-06-20T08:55:07.713120,1.00271692,.0000075,0.0112,310.7634,250.1603,98.3356,0,U,55970,999,1213,0,-.106E-5,0
SES-19,2023-038B,2026-06-20T08:24:38.675232,1.00270933,.0001709,0.0305,294.0186,159.7518,166.0491,0,U,55971,999,1212,0,.83E-6,0
INTELSAT 40E (IS-40E),2023-052A,2026-06-20T07:08:38.609376,1.00271291,.0002048,0.0177,79.6556,45.4481,159.5614,0,U,56174,999,1185,0,-.179E-5,0
VIASAT-3 F1,2023-060A,2026-06-19T19:17:44.369664,1.00271166,.00011009,0.0240,350.3723,91.4983,26.6368,0,U,56370,999,1146,0,0,0
ARCTURUS,2023-060B,2026-06-20T09:45:06.511104,1.00272479,.0002642,2.7832,79.9141,53.4469,354.0398,0,U,56371,999,1149,0,-.68E-6,0
GS-1,2023-060C,2026-06-18T17:20:11.631840,1.00274169,.00037425,2.7297,79.8139,281.5832,255.0259,0,U,56372,999,755,0,-.232E-5,0
BEIDOU-3 G4,2023-066A,2026-06-21T13:56:59.066880,1.00272609,.0004518,0.4811,332.6937,178.0024,108.3779,0,U,56564,999,1143,0,-.282E-5,0
ARABSAT-7B (BADR-8),2023-075A,2026-06-19T19:50:40.010208,1.00269503,.0004455,0.0749,27.8208,357.9211,205.9741,0,U,56757,999,1114,0,.139E-5,0
NVS-01 (IRNSS-1J),2023-076A,2026-06-20T10:53:22.983072,1.00277443,.0003064,2.1573,244.1904,17.9405,299.3162,0,U,56759,999,1114,0,-.339E-5,0
