GALAXY 33 (G-33)        
1 54026U 22128A   26171.39489199  .00000075  00000+0  00000+0 0  9991
2 54026   0.0225  55.3005 0001741  30.1498 192.3075  1.00270656 13776
GALAXY 34 (G-34)        
1 54027U 22128B   26171.03517034  .00000053  00000+0  00000+0 0  9999
2 54027   0.0124  53.5288 0001758  53.8534  44.5334  1.00275411 13948
ANGOSAT 2               
1 54033U 22131A   26172.53723875  .00000134  00000+0  00000+0 0  9998
2 54033   0.0299 100.6416 0000725 327.5424  57.9510  1.00273779 13520
EUTELSAT HOTBIRD 13F    
1 54048U 22134A   26171.18068367  .00000082  00000+0  00000+0 0  9997
2 54048   0.0471 295.1519 0001947  64.5697 346.7332  1.00273367 13400
LDPE-2                  
1 54219U 22144A   26171.36137514  .00000119  00000+0  00000+0 0  9990
2 54219   5.6217  63.6302 0001867  98.8441  81.6912  1.00534001 11878
EUTELSAT HOTBIRD 13G    
1 54225U 22146A   26171.10938343  .00000082  00000+0  00000+0 0  9999
2 54225   0.0472 222.5154 0002093 317.6469 140.5390  1.00272784  7497
ZHONGXING-19            
1 54230U 22148A   26172.50531091 -.00000083  00000+0  00000+0 0  9993
2 54230   0.0171  64.7588 0002531  46.9675 143.0775  1.00272048 13422
GALAXY 31 (G-31)        
1 54243U 22153A   26171.22547549  .00000008  00000+0  00000+0 0  9992
2 54243   0.0250  88.2921 0001170 352.9233 147.3806  1.00272126  7167
GALAXY 32 (G-32)        
1 54244U 22153B   26171.23129725 -.00000179  00000+0  00000+0 0  9996
2 54244   0.0157  36.0739 0002075   1.5238 223.1141  1.00271613 13172
EUTELSAT 10B            
1 54259U 22157A   26171.32244802  .00000063  00000+0  00000+0 0  9991
2 54259   0.0633  97.3477 0001310   6.5284 290.7143  1.00266775 13055
GALAXY 35 (G-35)        
1 54741U 22170A   26171.37352373 -.00000167  00000+0  00000+0 0  9996
2 54741   0.0184  78.3754 0001886   7.7151 223.8506  1.00271920 12926
GALAXY 36 (G-36)        
1 54742U 22170B   26171.37439038 -.00000190  00000+0  00000+0 0  9997
2 54742   0.0027  66.1363 0002602  18.0076 230.2209  1.00272198 12809
METEOSAT-12 (MTG-I1)    
1 54743U 22170C   26171.24937015 -.00000013  00000+0  00000+0 0  9996
2 54743   0.7421  23.5307 0003320  70.9892 263.3203  1.00273524 13009
SHIJIAN-23 (SJ-23)      
1 55131U 23002A   26171.49181124 -.00000272  00000+0  00000+0 0  9999
2 55131   3.7270  78.2744 0003795 275.1369 238.2597  1.00087098 12546
APSTAR-6E               
1 55239U 23005A   26172.51642083 -.00000319  00000+0  00000+0 0  9993
2 55239   0.0336 240.6321 0000753 315.1115  33.8531  1.00272313 18739
USA 342                 
1 55263U 23008A   26170.70365845  .00000000  00000+0  00000+0 0  9996
2 55263   0.0057  73.3519 0000125 107.0449   4.6843  1.00267812 12540
LDPE-3A                 
1 55264U 23008B   26171.36780369  .00000074  00000+0  00000+0 0  9993
2 55264   2.3572  81.6285 0001203  57.3943 140.0346  0.99145584 11847
ELEKTRO-L 4             
1 55506U 23016A   26171.79221736 -.00000062  00000+0  00000+0 0  9994
2 55506   0.0764 157.9076 0000884  20.1640 181.9168  1.00271037 12376
AMAZONAS NEXUS          
1 55508U 23017A   26170.81850470 -.00000288  00000+0  00000+0 0  9992
2 55508   0.0386  39.7222 0004742  27.7449  74.2186  1.00264811  7072
LUCH-5X (OLYMP-K 2)     
1 55841U 23031A   26171.19039038  .00000028  00000+0  00000+0 0  9990
2 55841   0.0319  70.1111 0000849 132.8971 195.9281  1.00272356 11969
GAOFEN-13 02            
1 55912U 23036A   26172.52477597 -.00000220  00000+0  00000+0 0  9993
2 55912   1.0212   1.7574 0003996 337.6625 267.4934  1.00269978 12137
SES-18                  
1 55970U 23038A   26171.37161705 -.00000106  00000+0  00000+0 0  9995
2 55970   0.0112 310.7634 0000075 250.1603  98.3356  1.00271692 12134
SES-19                  
1 55971U 23038B   26171.35044763  .00000083  00000+0  00000+0 0  9991
2 55971   0.0305 294.0186 0001709 159.7518 166.0491  1.00270933 12128
INTELSAT 40E (IS-40E)   
1 56174U 23052A   26171.29766909 -.00000179  00000+0  00000+0 0  9996
2 56174   0.0177  79.6556 0002048  45.4481 159.5614  1.00271291 11857
VIASAT-3 F1             
1 56370U 23060A   26170.80398576  .00000000  00000+0  00000+0 0  9992
2 56370   0.0240 350.3723 0001100  91.4983  26.6368  1.00271166 11465
ARCTURUS                
1 56371U 23060B   26171.40632536 -.00000068  00000+0  00000+0 0  9992
2 56371   2.7832  79.9141 0002642  53.4469 354.0398  1.00272479 11491
GS-1                    
1 56372U 23060C   26169.72235685 -.00000232  00000+0  00000+0 0  9992
2 56372   2.7297  79.8139 0003742 281.5832 255.0259  1.00274169  7559
BEIDOU-3 G4             
1 56564U 23066A   26172.58123920 -.00000282  00000+0  00000+0 0  9992
2 56564   0.4811 332.6937 0004518 178.0024 108.3779  1.00272609 11436
ARABSAT-7B (BADR-8)     
1 56757U 23075A   26170.82685197  .00000139  00000+0  00000+0 0  9990
2 56757   0.0749  27.8208 0004455 357.9211 205.9741  1.00269503 11146
NVS-01 (IRNSS-1J)       
1 56759U 23076A   26171.45373823 -.00000339  00000+0  00000+0 0  9996
2 56759   2.1573 244.1904 0003064  17.9405 299.3162  1.00277443 11142
